NORAD_CAT_ID,OBJECT_NAME,OBJECT_TYPE,EPOCH,MEAN_MOTION,ECCENTRICITY,INCLINATION,RA_OF_ASC_NODE,ARG_OF_PERICENTER,MEAN_ANOMALY,BSTAR,MEAN_MOTION_DOT,MEAN_MOTION_DDOT,TLE_LINE0,TLE_LINE1,TLE_LINE2,SEMIMAJOR_AXIS,PERIOD,APOGEE,PERIGEE,DECAYED
55790.0,STARLINK-5813,PAYLOAD,2023-08-31 20:00:01,15.34114532,0.0003358,70.0013,7.5747,281.1279,224.2761,-0.029305,-0.0089207,0.0,0 STARLINK-5813,1 55790U 23028BB  23243.83334491 -.00892070  00000-0 -29305-1 0  9998,2 55790  70.0013   7.5747 0003358 281.1279 224.2761 15.34114532 29046,6841.689,93.865,465.851,461.256,0.0
55790.0,STARLINK-5813,PAYLOAD,2023-08-31 22:00:01,15.33980116,0.0003317,70.001,7.3527,277.3959,328.1396,-0.031323,-0.00944648,0.0,0 STARLINK-5813,1 55790U 23028BB  23243.91668981 -.00944648  00000-0 -31323-1 0  9993,2 55790  70.0010   7.3527 0003317 277.3959 328.1396 15.33980116  6078,6842.089,93.873,466.223,461.684,0.0
55790.0,STARLINK-5813,PAYLOAD,2023-09-01 14:00:01,15.32661722,0.0003511,70.0014,5.5789,275.8522,48.4769,-0.031804,-0.00921978,0.0,0 STARLINK-5813,1 55790U 23028BB  23244.58334491 -.00921978  00000-0 -31804-1 0  9998,2 55790  70.0014   5.5789 0003511 275.8522  48.4769 15.32661722 29166,6846.012,93.954,470.28,465.473,0.0
55790.0,STARLINK-5813,PAYLOAD,2023-09-01 22:00:00,15.32022261,0.0003462,70.0012,4.6932,278.5372,84.0398,-0.033248,-0.0094273,0.0,0 STARLINK-5813,1 55790U 23028BB  23244.91667824 -.00942730  00000-0 -33248-1 0  9997,2 55790  70.0012   4.6932 0003462 278.5372  84.0398 15.32022261  6003,6847.917,93.993,472.152,467.411,0.0
55790.0,STARLINK-5813,PAYLOAD,2023-09-02 14:00:01,15.30703413,0.000348,70.0013,2.9248,278.9575,157.7834,-0.033764,-0.00920626,0.0,0 STARLINK-5813,1 55790U 23028BB  23245.58334491 -.00920626  00000-0 -33764-1 0  9995,2 55790  70.0013   2.9248 0003480 278.9575 157.7834 15.30703413  5964,6851.849,94.074,476.099,471.33,0.0
55790.0,STARLINK-5813,PAYLOAD,2023-09-02 20:00:01,15.30210397,0.0003566,70.0011,2.2624,280.6755,93.0657,-0.033664,-0.00905291,0.0,0 STARLINK-5813,1 55790U 23028BB  23245.83334491 -.00905291  00000-0 -33664-1 0  9993,2 55790  70.0011   2.2624 0003566 280.6755  93.0657 15.30210397 29356,6853.321,94.105,477.63,472.742,0.0
55790.0,STARLINK-5813,PAYLOAD,2023-09-02 22:00:00,15.30065262,0.0003389,70.001,2.0417,281.0563,191.5839,-0.035295,-0.00953509,0.0,0 STARLINK-5813,1 55790U 23028BB  23245.91667824 -.00953509  00000-0 -35295-1 0  9998,2 55790  70.0010   2.0417 0003389 281.0563 191.5839 15.30065262  6011,6853.754,94.114,477.942,473.297,0.0
55790.0,STARLINK-5813,PAYLOAD,2023-09-03 12:00:00,15.28923832,0.0003488,70.0012,0.4988,278.0168,165.5764,-0.036544,-0.00953094,0.0,0 STARLINK-5813,1 55790U 23028BB  23246.50001157 -.00953094  00000-0 -36544-1 0  9992,2 55790  70.0012   0.4988 0003488 278.0168 165.5764 15.28923832 29459,6857.165,94.184,481.422,476.638,0.0
55790.0,STARLINK-5813,PAYLOAD,2023-09-03 14:00:01,15.2873896,0.000336,70.001,0.2786,279.3809,262.7335,-0.035405,-0.00909355,0.0,0 STARLINK-5813,1 55790U 23028BB  23246.58334491 -.00909355  00000-0 -35405-1 0  9996,2 55790  70.0010   0.2786 0003360 279.3809 262.7335 15.28738960  5797,6857.718,94.195,481.887,477.279,0.0
55790.0,STARLINK-5813,PAYLOAD,2023-09-04 04:00:00,15.27567908,0.0003319,70.0008,358.7387,275.5551,234.7801,-0.034442,-0.00857697,0.0,0 STARLINK-5813,1 55790U 23028BB  23247.16667824 -.00857697  00000-0 -34442-1 0  9991,2 55790  70.0008 358.7387 0003319 275.5551 234.7801 15.27567908 29556,6861.222,94.267,485.365,480.81,0.0
55790.0,STARLINK-5813,PAYLOAD,2023-09-04 12:00:00,15.26962492,0.000331,70.0009,357.8599,274.8155,267.6947,-0.038382,-0.00943415,0.0,0 STARLINK-5813,1 55790U 23028BB  23247.50001157 -.00943415  00000-0 -38382-1 0  9991,2 55790  70.0009 357.8599 0003310 274.8155 267.6947 15.26962492 29603,6863.036,94.305,487.172,482.629,0.0
55790.0,STARLINK-5813,PAYLOAD,2023-09-04 14:00:01,15.26781231,0.0003353,70.0008,357.6404,274.9409,5.5026,-0.037399,-0.00905094,0.0,0 STARLINK-5813,1 55790U 23028BB  23247.58334491 -.00905094  00000-0 -37399-1 0  9997,2 55790  70.0008 357.6404 0003353 274.9409   5.5026 15.26781231  5954,6863.579,94.316,487.745,483.143,0.0
55790.0,STARLINK-5813,PAYLOAD,2023-09-05 14:00:01,15.24827156,0.000343,70.0006,355.0096,276.2884,95.4447,-0.039971,-0.00922663,0.0,0 STARLINK-5813,1 55790U 23028BB  23248.58334491 -.00922663  00000-0 -39971-1 0  9997,2 55790  70.0006 355.0096 0003430 276.2884  95.4447 15.24827156  6006,6869.442,94.437,493.663,488.95,0.0
55790.0,STARLINK-5813,PAYLOAD,2023-09-05 20:00:01,15.24349053,0.0003427,70.0003,354.353,276.3048,27.1441,-0.041175,-0.00935899,0.0,0 STARLINK-5813,1 55790U 23028BB  23248.83334491 -.00935899  00000-0 -41175-1 0  9999,2 55790  70.0003 354.3530 0003427 276.3048  27.1441 15.24349053 29812,6870.878,94.467,495.097,490.388,0.0
55790.0,STARLINK-5813,PAYLOAD,2023-09-06 14:00:01,15.228692,0.0003352,70.0006,352.3866,277.9674,178.0146,-0.042302,-0.00921118,0.0,0 STARLINK-5813,1 55790U 23028BB  23249.58334491 -.00921118  00000-0 -42302-1 0  9994,2 55790  70.0006 352.3866 0003352 277.9674 178.0146 15.22869200  6018,6875.328,94.558,499.498,494.889,0.0
55790.0,STARLINK-5813,PAYLOAD,2023-09-06 22:00:00,15.22239472,0.0003306,70.0003,351.5139,278.4163,204.0758,-0.045121,-0.00961124,0.0,0 STARLINK-5813,1 55790U 23028BB  23249.91667824 -.00961124  00000-0 -45121-1 0  9993,2 55790  70.0003 351.5139 0003306 278.4163 204.0758 15.22239472 29978,6877.224,94.597,501.363,496.816,0.0
55790.0,STARLINK-5813,PAYLOAD,2023-09-07 14:00:01,15.20908671,0.0003262,70.0006,349.7715,277.3361,255.8556,-0.044495,-0.00914849,0.0,0 STARLINK-5813,1 55790U 23028BB  23250.58334491 -.00914849  00000-0 -44495-1 0  9994,2 55790  70.0006 349.7715 0003262 277.3361 255.8556 15.20908671 30074,6881.235,94.68,505.345,500.856,0.0
55790.0,STARLINK-5813,PAYLOAD,2023-09-07 22:00:00,15.20283525,0.0003219,70.0003,348.9015,276.5723,280.782,-0.047961,-0.00964221,0.0,0 STARLINK-5813,1 55790U 23028BB  23250.91667824 -.00964221  00000-0 -47961-1 0  9990,2 55790  70.0003 348.9015 0003219 276.5723 280.7820 15.20283525  6023,6883.122,94.719,507.202,502.771,0.0
55790.0,STARLINK-5813,PAYLOAD,2023-09-08 14:00:01,15.18949337,0.0003273,70.0008,347.1644,276.146,327.2144,-0.04683,-0.00909732,0.0,0 STARLINK-5813,1 55790U 23028BB  23251.58334491 -.00909732  00000-0 -46830-1 0  9995,2 55790  70.0008 347.1644 0003273 276.1460 327.2144 15.18949337 30234,6887.152,94.802,511.271,506.763,0.0
55790.0,STARLINK-5813,PAYLOAD,2023-09-08 22:00:00,15.18324866,0.0003307,70.0005,346.297,275.2338,349.942,-0.050717,-0.0096325,0.0,0 STARLINK-5813,1 55790U 23028BB  23251.91667824 -.00963250  00000-0 -50717-1 0  9995,2 55790  70.0005 346.2970 0003307 275.2338 349.9420 15.18324866  5879,6889.04,94.841,513.183,508.627,0.0
55790.0,STARLINK-5813,PAYLOAD,2023-09-09 14:00:01,15.16992629,0.000337,70.0009,344.5653,276.0068,30.4802,-0.0495,-0.00908882,0.0,0 STARLINK-5813,1 55790U 23028BB  23252.58334491 -.00908882  00000-0 -49500-1 0  9998,2 55790  70.0009 344.5653 0003370 276.0068  30.4802 15.16992629 30387,6893.073,94.925,517.261,512.615,0.0
55790.0,STARLINK-5813,PAYLOAD,2023-09-10 06:00:00,15.15693823,0.0003378,70.0011,342.8369,271.0613,73.5881,-0.050882,-0.00900804,0.0,0 STARLINK-5813,1 55790U 23028BB  23253.25001157 -.00900804  00000-0 -50882-1 0  9994,2 55790  70.0011 342.8369 0003378 271.0613  73.5881 15.15693823 30483,6897.01,95.006,521.205,516.545,0.0
55790.0,STARLINK-5813,PAYLOAD,2023-09-10 14:00:01,15.15036393,0.0003396,70.0011,341.974,277.0282,85.5451,-0.05237,-0.0090932,0.0,0 STARLINK-5813,1 55790U 23028BB  23253.58334491 -.00909320  00000-0 -52370-1 0  9996,2 55790  70.0011 341.9740 0003396 277.0282  85.5451 15.15036393  6015,6899.005,95.047,523.213,518.527,0.0
55790.0,STARLINK-5813,PAYLOAD,2023-09-10 22:00:00,15.14405879,0.0003372,70.0008,341.1118,276.251,103.4472,-0.056289,-0.00956246,0.0,0 STARLINK-5813,1 55790U 23028BB  23253.91667824 -.00956246  00000-0 -56289-1 0  9994,2 55790  70.0008 341.1118 0003372 276.2510 103.4472 15.14405879 30581,6900.92,95.087,525.112,520.458,0.0
55790.0,STARLINK-5813,PAYLOAD,2023-09-11 14:00:01,15.13078986,0.000337,70.0012,339.3904,278.0012,133.6182,-0.055248,-0.00907812,0.0,0 STARLINK-5813,1 55790U 23028BB  23254.58334491 -.00907812  00000-0 -55248-1 0  9998,2 55790  70.0012 339.3904 0003370 278.0012 133.6182 15.13078986 30681,6904.954,95.17,529.146,524.492,0.0
55790.0,STARLINK-5813,PAYLOAD,2023-09-12 06:00:00,15.11786363,0.0003273,70.0013,337.6724,272.9462,167.4471,-0.057544,-0.00911624,0.0,0 STARLINK-5813,1 55790U 23028BB  23255.25001157 -.00911624  00000-0 -57544-1 0  9990,2 55790  70.0013 337.6724 0003273 272.9462 167.4471 15.11786363 30787,6908.889,95.252,533.015,528.493,0.0
55790.0,STARLINK-5813,PAYLOAD,2023-09-12 14:00:01,15.11119643,0.00033,70.0013,336.8147,278.4894,175.1995,-0.058078,-0.00903769,0.0,0 STARLINK-5813,1 55790U 23028BB  23255.58335648 -.00903769  00000-0 -58078-1 0  9995,2 55790  70.0013 336.8147 0003300 278.4894 175.1995 15.11119643  5991,6910.921,95.294,535.067,530.506,0.0
55790.0,STARLINK-5813,PAYLOAD,2023-09-12 20:00:01,15.10658915,0.0003406,70.0009,336.172,277.0882,95.9298,-0.062496,-0.00955918,0.0,0 STARLINK-5813,1 55790U 23028BB  23255.83334491 -.00955918  00000-0 -62496-1 0  9990,2 55790  70.0009 336.1720 0003406 277.0882  95.9298 15.10658915 30874,6912.326,95.323,536.546,531.837,0.0
55790.0,STARLINK-5813,PAYLOAD,2023-09-12 22:00:00,15.10487792,0.0003231,70.001,335.9578,276.4857,189.5718,-0.062263,-0.0094842,0.0,0 STARLINK-5813,1 55790U 23028BB  23255.91667824 -.00948420  00000-0 -62263-1 0  9990,2 55790  70.0010 335.9578 0003231 276.4857 189.5718 15.10487792  5899,6912.848,95.333,536.947,532.48,0.0
55790.0,STARLINK-5813,PAYLOAD,2023-09-13 14:00:01,15.09161391,0.0003241,70.0012,334.2468,278.559,210.0323,-0.061074,-0.00900539,0.0,0 STARLINK-5813,1 55790U 23028BB  23256.58334491 -.00900539  00000-0 -61074-1 0  9993,2 55790  70.0012 334.2468 0003241 278.5590 210.0323 15.09161391 30981,6916.898,95.417,541.005,536.521,0.0
